{"type": "FeatureCollection", "features": [ {"type": "Feature", "properties": {"norad_id": 31196, "name": "FENGYUN 1C DEB", "group": "fengyun-1c-debris", "lat": 81.26671665311432, "lon": -74.96059503426325, "alt_km": 817.5072013444405, "timestamp": "2025-12-15T11:38:37.434622+00:00", "meta": {"OBJECT_NAME": "FENGYUN 1C DEB", "OBJECT_ID": "1999-025BKA", "EPOCH": "2025-12-14T18:22:53.397120", "MEAN_MOTION": 14.25465421, "ECCENTRICITY": 0.00579864, "INCLINATION": 98.527, "RA_OF_ASC_NODE": 1.9336, "ARG_OF_PERICENTER": 206.1888, "MEAN_ANOMALY": 153.6357, "EPHEMERIS_TYPE": 0, "CLASSIFICATION_TYPE": "U", "NORAD_CAT_ID": 31196, "ELEMENT_SET_NO": 999, "REV_AT_EPOCH": 63524, "BSTAR": 0.00054520855, "MEAN_MOTION_DOT": 1.268e-05, "MEAN_MOTION_DDOT": 0}, "tle": {"line1": "1 31196U 99025BKA 25348.76589580  .00001268  00000+0  54521-3 0  9991", "line2": "2 31196  98.5270   1.9336 0057986 206.1888 153.6357 14.25465421635247"}}, "geometry": {"type": "Point", "coordinates": [-74.96059503426325, 81.26671665311432]}}, {"type": "Feature", "properties": {"norad_id": 31198, "name": "FENGYUN 1C DEB", "group": "fengyun-1c-debris", "lat": -24.144370220659916, "lon": 96.98529717694385, "alt_km": 836.857331644308, "timestamp": "2025-12-15T11:38:37.434632+00:00", "meta": {"OBJECT_NAME": "FENGYUN 1C DEB", "OBJECT_ID": "1999-025BKC", "EPOCH": "2025-12-14T13:03:48.344256", "MEAN_MOTION": 13.75521814, "ECCENTRICITY": 0.02037644, "INCLINATION": 98.6127, "RA_OF_ASC_NODE": 92.2391, "ARG_OF_PERICENTER": 346.6989, "MEAN_ANOMALY": 12.8838, "EPHEMERIS_TYPE": 0, "CLASSIFICATION_TYPE": "U", "NORAD_CAT_ID": 31198, "ELEMENT_SET_NO": 999, "REV_AT_EPOCH": 62778, "BSTAR": 0.00011036353, "MEAN_MOTION_DOT": 8.5e-07, "MEAN_MOTION_DDOT": 0}, "tle": {"line1": "1 31198U 99025BKC 25348.54430954  .00000085  00000+0  11036-3 0  9999", "line2": "2 31198  98.6127  92.2391 0203764 346.6989  12.8838 13.75521814627787"}}, "geometry": {"type": "Point", "coordinates": [96.98529717694385, -24.144370220659916]}}, {"type": "Feature", "properties": {"norad_id": 31199, "name": "FENGYUN 1C DEB", "group": "fengyun-1c-debris", "lat": 75.28202773686236, "lon": -172.0946243845959, "alt_km": 891.9319358074299, "timestamp": "2025-12-15T11:38:37.434642+00:00", "meta": {"OBJECT_NAME": "FENGYUN 1C DEB", "OBJECT_ID": "1999-025BKD", "EPOCH": "2025-12-14T17:16:16.580640", "MEAN_MOTION": 14.09989125, "ECCENTRICITY": 0.00634626, "INCLINATION": 98.7153, "RA_OF_ASC_NODE": 331.4352, "ARG_OF_PERICENTER": 254.0263, "MEAN_ANOMALY": 284.6423, "EPHEMERIS_TYPE": 0, "CLASSIFICATION_TYPE": "U", "NORAD_CAT_ID": 31199, "ELEMENT_SET_NO": 999, "REV_AT_EPOCH": 96187, "BSTAR": 0.00025599916, "MEAN_MOTION_DOT": 4.17e-06, "MEAN_MOTION_DDOT": 0}, "tle": {"line1": "1 31199U 99025BKD 25348.71963635  .00000417  00000+0  25600-3 0  9997", "line2": "2 31199  98.7153 331.4352 0063462 254.0263 284.6423 14.09989125961870"}}, "geometry": {"type": "Point", "coordinates": [-172.0946243845959, 75.28202773686236]}}, {"type": "Feature", "properties": {"norad_id": 31201, "name": "FENGYUN 1C DEB", "group": "fengyun-1c-debris", "lat": -21.518549344701917, "lon": 26.895783067218304, "alt_km": 859.0922418652926, "timestamp": "2025-12-15T11:38:37.434654+00:00", "meta": {"OBJECT_NAME": "FENGYUN 1C DEB", "OBJECT_ID": "1999-025BKF", "EPOCH": "2025-12-14T01:57:17.758656", "MEAN_MOTION": 14.35175347, "ECCENTRICITY": 0.01426273, "INCLINATION": 99.0029, "RA_OF_ASC_NODE": 209.0158, "ARG_OF_PERICENTER": 347.3883, "MEAN_ANOMALY": 167.0097, "EPHEMERIS_TYPE": 0, "CLASSIFICATION_TYPE": "U", "NORAD_CAT_ID": 31201, "ELEMENT_SET_NO": 999, "REV_AT_EPOCH": 97270, "BSTAR": 0.0010351543, "MEAN_MOTION_DOT": 3.269e-05, "MEAN_MOTION_DDOT": 0}, "tle": {"line1": "1 31201U 99025BKF 25348.08145554  .00003269  00000+0  10352-2 0  9998", "line2": "2 31201  99.0029 209.0158 0142627 347.3883 167.0097 14.35175347972706"}}, "geometry": {"type": "Point", "coordinates": [26.895783067218304, -21.518549344701917]}}, {"type": "Feature", "properties": {"norad_id": 31202, "name": "FENGYUN 1C DEB", "group": "fengyun-1c-debris", "lat": 64.18786799895277, "lon": -131.95356852884245, "alt_km": 581.1586379711198, "timestamp": "2025-12-15T11:38:37.434666+00:00", "meta": {"OBJECT_NAME": "FENGYUN 1C DEB", "OBJECT_ID": "1999-025BKG", "EPOCH": "2025-12-14T14:45:57.513600", "MEAN_MOTION": 14.84126452, "ECCENTRICITY": 0.00683834, "INCLINATION": 96.5738, "RA_OF_ASC_NODE": 33.5358, "ARG_OF_PERICENTER": 171.0197, "MEAN_ANOMALY": 339.7028, "EPHEMERIS_TYPE": 0, "CLASSIFICATION_TYPE": "U", "NORAD_CAT_ID": 31202, "ELEMENT_SET_NO": 999, "REV_AT_EPOCH": 99182, "BSTAR": 0.00077312749, "MEAN_MOTION_DOT": 6.691e-05, "MEAN_MOTION_DDOT": 0}, "tle": {"line1": "1 31202U 99025BKG 25348.61524900  .00006691  00000+0  77313-3 0  9997", "line2": "2 31202  96.5738  33.5358 0068383 171.0197 339.7028 14.84126452991827"}}, "geometry": {"type": "Point", "coordinates": [-131.95356852884245, 64.18786799895277]}}, {"type": "Feature", "properties": {"norad_id": 31205, "name": "FENGYUN 1C DEB", "group": "fengyun-1c-debris", "lat": 0.1636432178086891, "lon": -97.19232677368423, "alt_km": 700.07562455056, "timestamp": "2025-12-15T11:38:37.434676+00:00", "meta": {"OBJECT_NAME": "FENGYUN 1C DEB", "OBJECT_ID": "1999-025BKK", "EPOCH": "2025-12-14T12:52:34.134816", "MEAN_MOTION": 14.23959529, "ECCENTRICITY": 0.01619609, "INCLINATION": 99.229, "RA_OF_ASC_NODE": 81.7854, "ARG_OF_PERICENTER": 192.3146, "MEAN_ANOMALY": 167.4051, "EPHEMERIS_TYPE": 0, "CLASSIFICATION_TYPE": "U", "NORAD_CAT_ID": 31205, "ELEMENT_SET_NO": 999, "REV_AT_EPOCH": 97236, "BSTAR": 0.00020144085, "MEAN_MOTION_DOT": 4.79e-06, "MEAN_MOTION_DDOT": 0}, "tle": {"line1": "1 31205U 99025BKK 25348.53650619  .00000479  00000+0  20144-3 0  9996", "line2": "2 31205  99.2290  81.7854 0161960 192.3146 167.4051 14.23959529972366"}}, "geometry": {"type": "Point", "coordinates": [-97.19232677368423, 0.1636432178086891]}}, {"type": "Feature", "properties": {"norad_id": 31206, "name": "FENGYUN 1C DEB", "group": "fengyun-1c-debris", "lat": 4.766521231670573, "lon": -103.24251698641072, "alt_km": 704.6384737153403, "timestamp": "2025-12-15T11:38:37.434688+00:00", "meta": {"OBJECT_NAME": "FENGYUN 1C DEB", "OBJECT_ID": "1999-025BKL", "EPOCH": "2025-12-14T17:17:04.585344", "MEAN_MOTION": 14.40511163, "ECCENTRICITY": 0.00777647, "INCLINATION": 98.8434, "RA_OF_ASC_NODE": 256.711, "ARG_OF_PERICENTER": 356.022, "MEAN_ANOMALY": 4.034, "EPHEMERIS_TYPE": 0, "CLASSIFICATION_TYPE": "U", "NORAD_CAT_ID": 31206, "ELEMENT_SET_NO": 999, "REV_AT_EPOCH": 97874, "BSTAR": 0.00072072791, "MEAN_MOTION_DOT": 2.329e-05, "MEAN_MOTION_DDOT": 0}, "tle": {"line1": "1 31206U 99025BKL 25348.72019196  .00002329  00000+0  72073-3 0  9991", "line2": "2 31206  98.8434 256.7110 0077764 356.0220   4.0340 14.40511163978743"}}, "geometry": {"type": "Point", "coordinates": [-103.24251698641072, 4.766521231670573]}}, {"type": "Feature", "properties": {"norad_id": 31208, "name": "FENGYUN 1C DEB", "group": "fengyun-1c-debris", "lat": 79.16160859825983, "lon": 11.744991131771682, "alt_km": 690.3158368043478, "timestamp": "2025-12-15T11:38:37.434698+00:00", "meta": {"OBJECT_NAME": "FENGYUN 1C DEB", "OBJECT_ID": "1999-025BKN", "EPOCH": "2025-12-13T08:25:55.088256", "MEAN_MOTION": 14.61862471, "ECCENTRICITY": 0.00160842, "INCLINATION": 99.2396, "RA_OF_ASC_NODE": 131.1249, "ARG_OF_PERICENTER": 265.8015, "MEAN_ANOMALY": 126.2818, "EPHEMERIS_TYPE": 0, "CLASSIFICATION_TYPE": "U", "NORAD_CAT_ID": 31208, "ELEMENT_SET_NO": 999, "REV_AT_EPOCH": 70488, "BSTAR": 0.0052061327, "MEAN_MOTION_DOT": 0.00026113, "MEAN_MOTION_DDOT": 0}, "tle": {"line1": "1 31208U 99025BKN 25347.35133204  .00026113  00000+0  52061-2 0  9999", "line2": "2 31208  99.2396 131.1249 0016084 265.8015 126.2818 14.61862471704886"}}, "geometry": {"type": "Point", "coordinates": [11.744991131771682, 79.16160859825983]}}, {"type": "Feature", "properties": {"norad_id": 31209, "name": "FENGYUN 1C DEB", "group": "fengyun-1c-debris", "lat": 62.74721652700459, "lon": -77.64431982629527, "alt_km": 752.367152949555, "timestamp": "2025-12-15T11:38:37.434708+00:00", "meta": {"OBJECT_NAME": "FENGYUN 1C DEB", "OBJECT_ID": "1999-025BKP", "EPOCH": "2025-12-14T00:10:29.531136", "MEAN_MOTION": 14.43510229, "ECCENTRICITY": 0.00215543, "INCLINATION": 98.8825, "RA_OF_ASC_NODE": 83.1407, "ARG_OF_PERICENTER": 340.6158, "MEAN_ANOMALY": 19.4209, "EPHEMERIS_TYPE": 0, "CLASSIFICATION_TYPE": "U", "NORAD_CAT_ID": 31209, "ELEMENT_SET_NO": 999, "REV_AT_EPOCH": 64826, "BSTAR": 0.002813157, "MEAN_MOTION_DOT": 9.51e-05, "MEAN_MOTION_DDOT": 0}, "tle": {"line1": "1 31209U 99025BKP 25348.00728624  .00009510  00000+0  28132-2 0  9993", "line2": "2 31209  98.8825  83.1407 0021554 340.6158  19.4209 14.43510229648266"}}, "geometry": {"type": "Point", "coordinates": [-77.64431982629527, 62.74721652700459]}}, {"type": "Feature", "properties": {"norad_id": 31210, "name": "FENGYUN 1C DEB", "group": "fengyun-1c-debris", "lat": 27.325139649206903, "lon": -14.10913040014, "alt_km": 857.5023695682012, "timestamp": "2025-12-15T11:38:37.434718+00:00", "meta": {"OBJECT_NAME": "FENGYUN 1C DEB", "OBJECT_ID": "1999-025BKQ", "EPOCH": "2025-12-13T20:57:21.157056", "MEAN_MOTION": 14.11997806, "ECCENTRICITY": 0.00172041, "INCLINATION": 98.7187, "RA_OF_ASC_NODE": 348.8714, "ARG_OF_PERICENTER": 152.0041, "MEAN_ANOMALY": 326.4368, "EPHEMERIS_TYPE": 0, "CLASSIFICATION_TYPE": "U", "NORAD_CAT_ID": 31210, "ELEMENT_SET_NO": 999, "REV_AT_EPOCH": 95983, "BSTAR": 0.00046157881, "MEAN_MOTION_DOT": 8.03e-06, "MEAN_MOTION_DDOT": 0}, "tle": {"line1": "1 31210U 99025BKQ 25347.87316154  .00000803  00000+0  46158-3 0  9995", "line2": "2 31210  98.7187 348.8714 0017204 152.0041 326.4368 14.11997806959833"}}, "geometry": {"type": "Point", "coordinates": [-14.10913040014, 27.325139649206903]}}]}